[{"OBJECT_NAME":"ION SCV-011","OBJECT_ID":"2023-084AB","EPOCH":"2026-03-09T22:35:16.566144","MEAN_MOTION":15.27752464,"ECCENTRICITY":0.00079323,"INCLINATION":98.1356,"RA_OF_ASC_NODE":247.1056,"ARG_OF_PERICENTER":30.3898,"MEAN_ANOMALY":329.7798,"EPHEMERIS_TYPE":0,"CLASSIFICATION_TYPE":"U","NORAD_CAT_ID":56957,"ELEMENT_SET_NO":999,"REV_AT_EPOCH":15065,"BSTAR":0.0002590454,"MEAN_MOTION_DOT":6.943e-5,"MEAN_MOTION_DDOT":0},{"OBJECT_NAME":"STARLINK-36047","OBJECT_ID":"2025-278E","EPOCH":"2026-03-09T12:45:01.080864","MEAN_MOTION":15.27601267,"ECCENTRICITY":0.00014602,"INCLINATION":43.0018,"RA_OF_ASC_NODE":115.3715,"ARG_OF_PERICENTER":254.6191,"MEAN_ANOMALY":105.4499,"EPHEMERIS_TYPE":0,"CLASSIFICATION_TYPE":"U","NORAD_CAT_ID":66795,"ELEMENT_SET_NO":999,"REV_AT_EPOCH":1518,"BSTAR":0.00059027417,"MEAN_MOTION_DOT":0.00016027,"MEAN_MOTION_DDOT":0}]
